[{"OBJECT_NAME":"STARLINK-31935","OBJECT_ID":"2024-098U","EPOCH":"2025-09-15T04:38:08.703456","MEAN_MOTION":15.27578758,"ECCENTRICITY":8.645e-5,"INCLINATION":43.002,"RA_OF_ASC_NODE":189.3305,"ARG_OF_PERICENTER":282.3617,"MEAN_ANOMALY":77.7137,"EPHEMERIS_TYPE":0,"CLASSIFICATION_TYPE":"U","NORAD_CAT_ID":59876,"ELEMENT_SET_NO":999,"REV_AT_EPOCH":7500,"BSTAR":1.279171e-6,"MEAN_MOTION_DOT":-2.27e-6,"MEAN_MOTION_DDOT":0},{"OBJECT_NAME":"STARLINK-31934","OBJECT_ID":"2024-098V","EPOCH":"2025-09-15T05:19:20.156448","MEAN_MOTION":15.27582233,"ECCENTRICITY":0.00011414,"INCLINATION":42.9986,"RA_OF_ASC_NODE":185.2147,"ARG_OF_PERICENTER":238.8228,"MEAN_ANOMALY":121.2512,"EPHEMERIS_TYPE":0,"CLASSIFICATION_TYPE":"U","NORAD_CAT_ID":59877,"ELEMENT_SET_NO":999,"REV_AT_EPOCH":7505,"BSTAR":2.3200856e-5,"MEAN_MOTION_DOT":3.77e-6,"MEAN_MOTION_DDOT":0},{"OBJECT_NAME":"STARLINK-31943","OBJECT_ID":"2024-098W","EPOCH":"2025-09-15T05:16:18.880608","MEAN_MOTION":15.27583113,"ECCENTRICITY":0.00010734,"INCLINATION":43.0027,"RA_OF_ASC_NODE":192.9872,"ARG_OF_PERICENTER":239.6074,"MEAN_ANOMALY":120.4671,"EPHEMERIS_TYPE":0,"CLASSIFICATION_TYPE":"U","NORAD_CAT_ID":59878,"ELEMENT_SET_NO":999,"REV_AT_EPOCH":7431,"BSTAR":8.5380716e-5,"MEAN_MOTION_DOT":2.088e-5,"MEAN_MOTION_DDOT":0},{"OBJECT_NAME":"STARLINK-31926","OBJECT_ID":"2024-098X","EPOCH":"2025-09-15T03:11:31.964640","MEAN_MOTION":15.27593357,"ECCENTRICITY":0.00013206,"INCLINATION":42.9982,"RA_OF_ASC_NODE":178.9399,"ARG_OF_PERICENTER":270.7368,"MEAN_ANOMALY":89.3333,"EPHEMERIS_TYPE":0,"CLASSIFICATION_TYPE":"U","NORAD_CAT_ID":59879,"ELEMENT_SET_NO":999,"REV_AT_EPOCH":7511,"BSTAR":0.00040692941,"MEAN_MOTION_DOT":0.00010957,"MEAN_MOTION_DDOT":0},{"OBJECT_NAME":"STARLINK-31919","OBJECT_ID":"2024-098Y","EPOCH":"2025-09-15T04:17:47.573376","MEAN_MOTION":15.27584722,"ECCENTRICITY":0.00010755,"INCLINATION":42.9997,"RA_OF_ASC_NODE":189.2217,"ARG_OF_PERICENTER":273.839,"MEAN_ANOMALY":86.2339,"EPHEMERIS_TYPE":0,"CLASSIFICATION_TYPE":"U","NORAD_CAT_ID":59880,"ELEMENT_SET_NO":999,"REV_AT_EPOCH":7500,"BSTAR":0.00012317902,"MEAN_MOTION_DOT":3.13e-5,"MEAN_MOTION_DDOT":0},{"OBJECT_NAME":"STARLINK-31974","OBJECT_ID":"2024-100A","EPOCH":"2025-09-15T02:32:18.221280","MEAN_MOTION":15.27576428,"ECCENTRICITY":9.386e-5,"INCLINATION":43.0033,"RA_OF_ASC_NODE":36.9984,"ARG_OF_PERICENTER":260.7465,"MEAN_ANOMALY":99.3281,"EPHEMERIS_TYPE":0,"CLASSIFICATION_TYPE":"U","NORAD_CAT_ID":59885,"ELEMENT_SET_NO":999,"REV_AT_EPOCH":7420,"BSTAR":-3.394939e-6,"MEAN_MOTION_DOT":-3.55e-6,"MEAN_MOTION_DDOT":0},{"OBJECT_NAME":"STARLINK-31975","OBJECT_ID":"2024-100B","EPOCH":"2025-09-15T02:36:01.981728","MEAN_MOTION":15.2754469,"ECCENTRICITY":2.222e-5,"INCLINATION":43.0032,"RA_OF_ASC_NODE":37.0199,"ARG_OF_PERICENTER":2.0369,"MEAN_ANOMALY":358.0483,"EPHEMERIS_TYPE":0,"CLASSIFICATION_TYPE":"U","NORAD_CAT_ID":59886,"ELEMENT_SET_NO":999,"REV_AT_EPOCH":7430,"BSTAR":-1.8409481e-5,"MEAN_MOTION_DOT":-7.68e-6,"MEAN_MOTION_DDOT":0},{"OBJECT_NAME":"STARLINK-31976","OBJECT_ID":"2024-100C","EPOCH":"2025-09-14T21:10:28.613568","MEAN_MOTION":15.27585419,"ECCENTRICITY":0.00014023,"INCLINATION":43.0019,"RA_OF_ASC_NODE":42.1942,"ARG_OF_PERICENTER":263.2163,"MEAN_ANOMALY":96.8529,"EPHEMERIS_TYPE":0,"CLASSIFICATION_TYPE":"U","NORAD_CAT_ID":59887,"ELEMENT_SET_NO":999,"REV_AT_EPOCH":7422,"BSTAR":5.8038378e-5,"MEAN_MOTION_DOT":1.335e-5,"MEAN_MOTION_DDOT":0},{"OBJECT_NAME":"STARLINK-31965","OBJECT_ID":"2024-100D","EPOCH":"2025-09-14T09:36:55.968192","MEAN_MOTION":15.27578653,"ECCENTRICITY":0.00014817,"INCLINATION":43.0041,"RA_OF_ASC_NODE":41.1622,"ARG_OF_PERICENTER":244.4624,"MEAN_ANOMALY":115.6075,"EPHEMERIS_TYPE":0,"CLASSIFICATION_TYPE":"U","NORAD_CAT_ID":59888,"ELEMENT_SET_NO":999,"REV_AT_EPOCH":7409,"BSTAR":-6.788397e-6,"MEAN_MOTION_DOT":-4.49e-6,"MEAN_MOTION_DDOT":0},{"OBJECT_NAME":"STARLINK-31969","OBJECT_ID":"2024-100E","EPOCH":"2025-09-15T02:29:18.046176","MEAN_MOTION":15.27574498,"ECCENTRICITY":0.00019395,"INCLINATION":43.0044,"RA_OF_ASC_NODE":33.5255,"ARG_OF_PERICENTER":274.4849,"MEAN_ANOMALY":85.5782,"EPHEMERIS_TYPE":0,"CLASSIFICATION_TYPE":"U","NORAD_CAT_ID":59889,"ELEMENT_SET_NO":999,"REV_AT_EPOCH":7434,"BSTAR":-7.641164e-6,"MEAN_MOTION_DOT":-4.73e-6,"MEAN_MOTION_DDOT":0},{"OBJECT_NAME":"STARLINK-31951","OBJECT_ID":"2024-100F","EPOCH":"2025-09-15T02:10:06.054240","MEAN_MOTION":15.27574756,"ECCENTRICITY":7.16e-5,"INCLINATION":43.0021,"RA_OF_ASC_NODE":36.8824,"ARG_OF_PERICENTER":292.5269,"MEAN_ANOMALY":67.5507,"EPHEMERIS_TYPE":0,"CLASSIFICATION_TYPE":"U","NORAD_CAT_ID":59890,"ELEMENT_SET_NO":999,"REV_AT_EPOCH":7420,"BSTAR":-6.852215e-6,"MEAN_MOTION_DOT":-4.5e-6,"MEAN_MOTION_DDOT":0},{"OBJECT_NAME":"STARLINK-31949","OBJECT_ID":"2024-100G","EPOCH":"2025-09-15T02:26:45.494016","MEAN_MOTION":15.27558611,"ECCENTRICITY":9.613e-5,"INCLINATION":43.002,"RA_OF_ASC_NODE":36.963,"ARG_OF_PERICENTER":272.9824,"MEAN_ANOMALY":87.0917,"EPHEMERIS_TYPE":0,"CLASSIFICATION_TYPE":"U","NORAD_CAT_ID":59891,"ELEMENT_SET_NO":999,"REV_AT_EPOCH":7420,"BSTAR":8.4565028e-5,"MEAN_MOTION_DOT":2.064e-5,"MEAN_MOTION_DDOT":0},{"OBJECT_NAME":"STARLINK-31977","OBJECT_ID":"2024-100H","EPOCH":"2025-09-15T01:58:32.342592","MEAN_MOTION":15.27575855,"ECCENTRICITY":0.00011562,"INCLINATION":43.0044,"RA_OF_ASC_NODE":29.8995,"ARG_OF_PERICENTER":288.7853,"MEAN_ANOMALY":71.2874,"EPHEMERIS_TYPE":0,"CLASSIFICATION_TYPE":"U","NORAD_CAT_ID":59892,"ELEMENT_SET_NO":999,"REV_AT_EPOCH":7438,"BSTAR":-1.2365576e-5,"MEAN_MOTION_DOT":-6.02e-6,"MEAN_MOTION_DDOT":0},{"OBJECT_NAME":"STARLINK-31963","OBJECT_ID":"2024-100J","EPOCH":"2025-09-15T02:47:06.312192","MEAN_MOTION":15.27575891,"ECCENTRICITY":0.00016981,"INCLINATION":43.0043,"RA_OF_ASC_NODE":37.0722,"ARG_OF_PERICENTER":271.0946,"MEAN_ANOMALY":88.9711,"EPHEMERIS_TYPE":0,"CLASSIFICATION_TYPE":"U","NORAD_CAT_ID":59893,"ELEMENT_SET_NO":999,"REV_AT_EPOCH":7430,"BSTAR":7.561228e-6,"MEAN_MOTION_DOT":-5.4e-7,"MEAN_MOTION_DDOT":0},{"OBJECT_NAME":"STARLINK-31961","OBJECT_ID":"2024-100K","EPOCH":"2025-09-15T02:24:25.728192","MEAN_MOTION":15.27584313,"ECCENTRICITY":0.0001938,"INCLINATION":43.0071,"RA_OF_ASC_NODE":30.0336,"ARG_OF_PERICENTER":270.3786,"MEAN_ANOMALY":89.6843,"EPHEMERIS_TYPE":0,"CLASSIFICATION_TYPE":"U","NORAD_CAT_ID":59894,"ELEMENT_SET_NO":999,"REV_AT_EPOCH":7438,"BSTAR":2.993836e-5,"MEAN_MOTION_DOT":5.62e-6,"MEAN_MOTION_DDOT":0},{"OBJECT_NAME":"STARLINK-31964","OBJECT_ID":"2024-100L","EPOCH":"2025-09-14T21:12:49.646016","MEAN_MOTION":15.27573708,"ECCENTRICITY":0.00011044,"INCLINATION":43.0018,"RA_OF_ASC_NODE":37.9077,"ARG_OF_PERICENTER":275.2981,"MEAN_ANOMALY":84.7744,"EPHEMERIS_TYPE":0,"CLASSIFICATION_TYPE":"U","NORAD_CAT_ID":59895,"ELEMENT_SET_NO":999,"REV_AT_EPOCH":7422,"BSTAR":-1.4255314e-5,"MEAN_MOTION_DOT":-6.54e-6,"MEAN_MOTION_DDOT":0},{"OBJECT_NAME":"STARLINK-31905","OBJECT_ID":"2024-100M","EPOCH":"2025-09-13T16:12:41.539392","MEAN_MOTION":15.27556873,"ECCENTRICITY":0.00014323,"INCLINATION":43.0055,"RA_OF_ASC_NODE":41.7223,"ARG_OF_PERICENTER":236.4195,"MEAN_ANOMALY":123.6521,"EPHEMERIS_TYPE":0,"CLASSIFICATION_TYPE":"U","NORAD_CAT_ID":59896,"ELEMENT_SET_NO":999,"REV_AT_EPOCH":7412,"BSTAR":-5.8751802e-5,"MEAN_MOTION_DOT":-1.877e-5,"MEAN_MOTION_DDOT":0},{"OBJECT_NAME":"STARLINK-31928","OBJECT_ID":"2024-100N","EPOCH":"2025-09-14T09:48:02.370528","MEAN_MOTION":15.27578333,"ECCENTRICITY":0.00020542,"INCLINATION":43.0012,"RA_OF_ASC_NODE":41.2226,"ARG_OF_PERICENTER":278.2003,"MEAN_ANOMALY":81.8616,"EPHEMERIS_TYPE":0,"CLASSIFICATION_TYPE":"U","NORAD_CAT_ID":59897,"ELEMENT_SET_NO":999,"REV_AT_EPOCH":7409,"BSTAR":-2.943122e-5,"MEAN_MOTION_DOT":-1.072e-5,"MEAN_MOTION_DDOT":0},{"OBJECT_NAME":"STARLINK-31953","OBJECT_ID":"2024-100P","EPOCH":"2025-09-14T09:22:49.724256","MEAN_MOTION":15.27583804,"ECCENTRICITY":0.00022362,"INCLINATION":43.0058,"RA_OF_ASC_NODE":37.6322,"ARG_OF_PERICENTER":271.5868,"MEAN_ANOMALY":88.4727,"EPHEMERIS_TYPE":0,"CLASSIFICATION_TYPE":"U","NORAD_CAT_ID":59898,"ELEMENT_SET_NO":999,"REV_AT_EPOCH":7423,"BSTAR":4.109534e-6,"MEAN_MOTION_DOT":-1.49e-6,"MEAN_MOTION_DDOT":0},{"OBJECT_NAME":"STARLINK-31942","OBJECT_ID":"2024-100Q","EPOCH":"2025-09-15T02:15:39.055392","MEAN_MOTION":15.27574406,"ECCENTRICITY":0.00011078,"INCLINATION":43.0043,"RA_OF_ASC_NODE":36.9085,"ARG_OF_PERICENTER":273.9933,"MEAN_ANOMALY":86.0792,"EPHEMERIS_TYPE":0,"CLASSIFICATION_TYPE":"U","NORAD_CAT_ID":59899,"ELEMENT_SET_NO":999,"REV_AT_EPOCH":7429,"BSTAR":1.9294489e-5,"MEAN_MOTION_DOT":2.69e-6,"MEAN_MOTION_DDOT":0},{"OBJECT_NAME":"STARLINK-31676","OBJECT_ID":"2024-100R","EPOCH":"2025-09-15T02:41:33.515808","MEAN_MOTION":15.27571818,"ECCENTRICITY":0.00015291,"INCLINATION":43.0043,"RA_OF_ASC_NODE":37.0441,"ARG_OF_PERICENTER":278.8577,"MEAN_ANOMALY":81.2102,"EPHEMERIS_TYPE":0,"CLASSIFICATION_TYPE":"U","NORAD_CAT_ID":59900,"ELEMENT_SET_NO":999,"REV_AT_EPOCH":7419,"BSTAR":-8.316418e-6,"MEAN_MOTION_DOT":-4.91e-6,"MEAN_MOTION_DDOT":0},{"OBJECT_NAME":"STARLINK-31908","OBJECT_ID":"2024-100S","EPOCH":"2025-09-15T02:18:53.638560","MEAN_MOTION":15.27576375,"ECCENTRICITY":0.00014503,"INCLINATION":43.0056,"RA_OF_ASC_NODE":30.0031,"ARG_OF_PERICENTER":252.0051,"MEAN_ANOMALY":108.0643,"EPHEMERIS_TYPE":0,"CLASSIFICATION_TYPE":"U","NORAD_CAT_ID":59901,"ELEMENT_SET_NO":999,"REV_AT_EPOCH":7437,"BSTAR":-1.2800093e-5,"MEAN_MOTION_DOT":-6.14e-6,"MEAN_MOTION_DDOT":0},{"OBJECT_NAME":"STARLINK-31914","OBJECT_ID":"2024-100T","EPOCH":"2025-09-14T09:42:29.187072","MEAN_MOTION":15.27575116,"ECCENTRICITY":0.00027351,"INCLINATION":43.0077,"RA_OF_ASC_NODE":41.1927,"ARG_OF_PERICENTER":285.4111,"MEAN_ANOMALY":74.6439,"EPHEMERIS_TYPE":0,"CLASSIFICATION_TYPE":"U","NORAD_CAT_ID":59902,"ELEMENT_SET_NO":999,"REV_AT_EPOCH":7408,"BSTAR":2.0264352e-5,"MEAN_MOTION_DOT":2.95e-6,"MEAN_MOTION_DDOT":0}]
